NOAA 1 [-]              
1 04793U 70106A   22054.46761895 -.00000055  00000+0 -66949-4 0  9995
2 04793 101.5726 121.0905 0031891 183.5633 188.2841 12.54003292343309
NOAA 2 (ITOS-D) [-]     
1 06235U 72082A   22054.55213830 -.00000017  00000+0  18625-3 0  9998
2 06235 101.9413  36.1280 0003854 295.0557 177.1302 12.53143366257706
NOAA 3 [-]              
1 06920U 73086A   22054.59105181 -.00000019  00000+0  19745-3 0  9993
2 06920 102.1951  35.8345 0006454 139.2287 330.4985 12.40345881186864
NOAA 4 [-]              
1 07529U 74089A   22054.53156852 -.00000016  00000+0  18954-3 0  9996
2 07529 101.9005  33.8896 0008932 323.9039 144.5394 12.53154850162271
NOAA 5 [-]              
1 09057U 76077A   22054.52750187 -.00000013  00000+0  24453-3 0  9991
2 09057 102.0835  23.7944 0010008 350.5982 121.9494 12.37767820 59649
TIROS N [-]             
1 11060U 78096A   22054.56086834  .00000035  00000+0  37897-4 0  9996
2 11060  98.6530 111.2385 0011673 110.2935 249.9496 14.18353742455703
NOAA 6 [-]              
1 11416U 79057A   22054.57842086  .00000113  00000+0  57031-4 0  9998
2 11416  98.6680  65.2358 0009437 231.1012 128.9331 14.33699551225208
NOAA 7 [-]              
1 12553U 81059A   22054.57292561 -.00000010  00000+0  17856-4 0  9991
2 12553  99.0168  97.4828 0012486  80.9123 279.3463 14.17315319101666
NOAA 8 [-]              
1 13923U 83022A   22054.55931665  .00000056  00000+0  39889-4 0  9997
2 13923  98.6792  45.5922 0015063 178.6241 181.4984 14.28773636 26147
NOAA 9 [-]              
1 15427U 84123A   22054.57102606  .00000045  00000+0  45670-4 0  9991
2 15427  99.0312  25.2537 0015595 125.9493 345.4772 14.16169246920493
NOAA 10 [-]             
1 16969U 86073A   22054.61636383  .00000050  00000+0  37484-4 0  9998
2 16969  98.5585  42.9233 0011173 288.6372 183.6997 14.28169332844586
NOAA 11 [-]             
1 19531U 88089A   22054.59219465  .00000021  00000+0  31655-4 0  9992
2 19531  98.4173  49.9707 0011816 142.3392 217.8612 14.15292962724719
NOAA 12 [-]             
1 21263U 91032A   22054.54090704  .00000025  00000+0  28550-4 0  9991
2 21263  98.5125  57.5693 0012862 316.3627  43.6535 14.25969184600751
NOAA 13 [-]             
1 22739U 93050A   22054.56817084  .00000028  00000+0  37194-4 0  9999
2 22739  98.4934  40.1131 0008728 315.0137  45.0328 14.12815718470974
NOAA 14 [-]             
1 23455U 94089A   22054.57366828 -.00000008  00000+0  17482-4 0  9991
2 23455  98.4624  87.3523 0008392 294.5781  65.4518 14.14181809400853
NOAA 15 [B]             
1 25338U 98030A   22054.54939610  .00000049  00000+0  38829-4 0  9997
2 25338  98.6584  85.4995 0009322 269.0438  90.9673 14.26092215237032
NOAA 16 [-]             
1 26536U 00055A   22054.55854613  .00000010  00000+0  27718-4 0  9991
2 26536  98.6532 117.3088 0011443 127.9384 232.2825 14.13306184401260
NOAA 17 [-]             
1 27453U 02032A   22054.55222600  .00000051  00000+0  40344-4 0  9997
2 27453  98.6595   1.2220 0010811 241.0611 118.9484 14.25094034 22638
NOAA 18 [B]             
1 28654U 05018A   22054.60294945  .00000110  00000+0  83376-4 0  9993
2 28654  98.9623 125.0767 0013289 294.2557  65.7226 14.12691323863905
NOAA 19 [+]             
1 33591U 09005A   22054.59147990  .00000066  00000+0  61072-4 0  9993
2 33591  99.1631  86.2578 0014499 144.9815 215.2312 14.12532172672118
SUOMI NPP [+]           
1 37849U 11061A   22054.60075696  .00000052  00000+0  45475-4 0  9997
2 37849  98.7228 354.7921 0000937  75.6805  97.1105 14.19545753535044
NOAA 20 [+]             
1 43013U 17073A   22054.53141630  .00000024  00000+0  32093-4 0  9991
2 43013  98.7468 354.6515 0001397  70.6509 289.4818 14.19529888221067
